{
"type": "FeatureCollection",
"name": "canals",
"crs": { "type": "name", "properties": { "name": "urn:ogc:def:crs:OGC:1.3:CRS84" } },
"features": [
{ "type": "Feature", "properties": { "nom": "Rec del Molí o de Sentmenat", "codi_sad": "CR_SENTMENAT" }, "geometry": { "type": "MultiLineString", "coordinates": [ [ [ 2.986616568249783, 42.082613338510257 ], [ 2.98777123097849, 42.082665373291604 ], [ 2.98906527706514, 42.082576522283205 ], [ 2.990389226470886, 42.082191053832545 ], [ 2.991265200627026, 42.08203540602895 ], [ 2.992200862482601, 42.082139285309466 ], [ 2.993216184015442, 42.0820132925355 ], [ 2.994271331385666, 42.081731574943667 ], [ 2.994958168324949, 42.081538813667279 ], [ 2.99568480003542, 42.081590749234422 ], [ 2.996620475554738, 42.081449893037316 ], [ 2.997546194207046, 42.081279368454361 ], [ 2.998611264573455, 42.080975365728683 ], [ 2.999556880389101, 42.080545295387971 ], [ 3.001129562154841, 42.079922419203662 ], [ 3.001856165544527, 42.079462671234353 ], [ 3.002473285661071, 42.079410753629972 ], [ 3.002881372493942, 42.079195705111054 ], [ 3.003408905803946, 42.079114124134989 ], [ 3.00360797090932, 42.079017721252896 ], [ 3.00370748748171, 42.078698867127351 ], [ 3.004035937208224, 42.078468986743381 ], [ 3.004404196591906, 42.078216858471528 ], [ 3.004473858850062, 42.078053722710301 ], [ 3.004443979620353, 42.077779363703016 ], [ 3.004662919540975, 42.077327031467028 ], [ 3.004842054348761, 42.077015588141784 ], [ 3.004861931884169, 42.076637415105637 ], [ 3.005011221419337, 42.076541011845784 ], [ 3.00531978319385, 42.076718961349918 ], [ 3.005518871329549, 42.077008142449451 ], [ 3.005857281465087, 42.077022955958533 ], [ 3.006066298696199, 42.077022945100474 ], [ 3.006225535425277, 42.076874633754322 ], [ 3.006384787021323, 42.07688204014606 ], [ 3.006484309757679, 42.076793052873157 ], [ 3.006673433109736, 42.076919099429574 ], [ 3.006832696004654, 42.07703031717157 ], [ 3.007021802767179, 42.076993230052722 ], [ 3.007240755395951, 42.076837498486917 ], [ 3.007380086064598, 42.076718847353206 ], [ 3.007250667209595, 42.076474155936879 ], [ 3.007409886007838, 42.076207200665309 ], [ 3.007429770533567, 42.076021820829411 ], [ 3.007648713483942, 42.075821597605326 ], [ 3.007967210850619, 42.075828991078957 ], [ 3.008006993083868, 42.075591703749161 ], [ 3.008285633059817, 42.075258002539861 ], [ 3.008554310272838, 42.07487239537253 ], [ 3.008693573479732, 42.07430883396475 ], [ 3.008743279356216, 42.073886166945073 ], [ 3.008653659626898, 42.073552492207426 ], [ 3.008454568063546, 42.073263316371481 ], [ 3.008514252034637, 42.07302602729159 ], [ 3.008524169885409, 42.072766496438966 ], [ 3.008534071762557, 42.072388323226633 ], [ 3.008464370924763, 42.072136213390237 ], [ 3.008086163224489, 42.072017598305059 ], [ 3.008165753116592, 42.071787723098083 ], [ 3.00807615252546, 42.071557859857386 ], [ 3.007877101906296, 42.071528213100244 ], [ 3.007578489278501, 42.071172306094148 ], [ 3.007697867450348, 42.070764464971383 ], [ 3.007558476499299, 42.070260244085397 ], [ 3.007588280827826, 42.069822748275293 ], [ 3.007239938767945, 42.069652222322119 ], [ 3.007269772919927, 42.069459426522734 ], [ 3.007080649108957, 42.069140586860158 ], [ 3.006921387784667, 42.068866235979691 ], [ 3.006642700581681, 42.068547400928701 ], [ 3.006373973187944, 42.068280470695889 ], [ 3.006423700221085, 42.067961616371072 ], [ 3.006344037945349, 42.067479635863805 ], [ 3.006234529224385, 42.067071808423684 ], [ 3.006035437288454, 42.066448946118108 ], [ 3.005507969263006, 42.066033723974606 ], [ 3.004861088809269, 42.065588843873982 ], [ 3.004253998020874, 42.064773200800516 ], [ 3.004253969805897, 42.064350536852714 ], [ 3.004612152616937, 42.063505195026295 ], [ 3.005020125693031, 42.063230817040221 ], [ 3.005776388470867, 42.063045402498027 ], [ 3.006194323305176, 42.062963813953232 ], [ 3.007149633965648, 42.063089816120467 ], [ 3.007965609678517, 42.063023025957861 ], [ 3.009219438590409, 42.063030347246091 ], [ 3.010413544723301, 42.062933848044558 ], [ 3.011299183777206, 42.062933764269978 ], [ 3.012234540817719, 42.062740874232389 ], [ 3.013538169921938, 42.062985428114324 ], [ 3.014274602686626, 42.063244869442521 ], [ 3.015110510144522, 42.063326329176718 ], [ 3.015896675463634, 42.063452280672614 ], [ 3.016742441401017, 42.063162969224919 ], [ 3.017070775936334, 42.062977541885964 ], [ 3.017777262279594, 42.062851376924854 ], [ 3.01810561747781, 42.062754928524591 ], [ 3.018433913770947, 42.062458269884765 ], [ 3.018722427451394, 42.062243183547359 ], [ 3.019020841355203, 42.061864961308707 ], [ 3.019418915357529, 42.061998367532404 ], [ 3.019976165512862, 42.062005687054338 ], [ 3.020881773515345, 42.062250226140918 ], [ 3.021548510949497, 42.06233166965422 ], [ 3.022295005299305, 42.062835757916147 ], [ 3.023061376018149, 42.063236025065351 ], [ 3.023837704698664, 42.063628869842667 ], [ 3.025251061782355, 42.0643849136654 ], [ 3.026286234018997, 42.06497789378421 ], [ 3.027341286981458, 42.065474462745584 ], [ 3.028207042051065, 42.065437177453788 ], [ 3.029451006977639, 42.065525846848821 ], [ 3.030714910361654, 42.065681233824186 ], [ 3.031540710080979, 42.065339912689637 ], [ 3.033192429741648, 42.064939028450105 ], [ 3.036903706562267, 42.063966509541757 ], [ 3.038884005462346, 42.063995516330735 ], [ 3.041540661744049, 42.063527430563319 ], [ 3.041829116833299, 42.063334531680482 ], [ 3.042326374370575, 42.062889439852412 ], [ 3.042773790725445, 42.062325721868319 ], [ 3.043111659946447, 42.061643400719184 ], [ 3.043270686412977, 42.061368979925973 ], [ 3.043439682437936, 42.061124215771443 ], [ 3.043767847261511, 42.060820069476407 ], [ 3.04407618976154, 42.06063457243237 ], [ 3.044464254328387, 42.060619592421844 ], [ 3.044941879646889, 42.06061199122594 ], [ 3.045702953684228, 42.060403139250631 ], [ 3.045638216360794, 42.060321598227205 ], [ 3.045866938511846, 42.060125005246007 ], [ 3.046230074751291, 42.060043292760383 ], [ 3.046732612673931, 42.060091287793661 ], [ 3.047175505614878, 42.060217164363387 ], [ 3.047842216281988, 42.060246549031746 ], [ 3.048185536439944, 42.060279773636019 ], [ 3.049737963329719, 42.06045336767604 ], [ 3.049872580880041, 42.060816652186404 ], [ 3.050589181890591, 42.061009132754492 ], [ 3.05138581453118, 42.0617243418668 ], [ 3.051808823327323, 42.061846501839717 ], [ 3.052634907305785, 42.062046335284023 ], [ 3.053008255674502, 42.062276033408551 ], [ 3.053346735031061, 42.062453840406391 ], [ 3.054108172537759, 42.062679646311217 ], [ 3.054561141037796, 42.062913009372757 ], [ 3.054924534417372, 42.063124168063396 ], [ 3.055700941271893, 42.063383324420172 ], [ 3.056487321974973, 42.063661008498165 ], [ 3.060041167362619, 42.065038423520555 ], [ 3.062201393542098, 42.065845525013593 ], [ 3.064799709610194, 42.066815472591685 ], [ 3.066163610129873, 42.067326339985428 ], [ 3.06777639748026, 42.06790378078118 ], [ 3.068254400159463, 42.06820010357783 ], [ 3.068961043300557, 42.068259002363497 ], [ 3.069787450862476, 42.068629260391141 ], [ 3.070145734969499, 42.068643872270471 ], [ 3.070434651123077, 42.068925471057831 ], [ 3.071459857802696, 42.069065725156328 ], [ 3.072007525152677, 42.069339743409188 ], [ 3.074187365610837, 42.06964237617877 ], [ 3.075779868376734, 42.069789638705018 ], [ 3.077571618796084, 42.070099877912362 ], [ 3.077949780859883, 42.070084791389803 ], [ 3.07836768732123, 42.070017770444785 ], [ 3.078756020782695, 42.070180637898005 ], [ 3.079383069205984, 42.070232111931674 ], [ 3.080169474156031, 42.070379868266286 ], [ 3.080945883464236, 42.070490550515707 ], [ 3.081702419612899, 42.070623487104591 ], [ 3.082498729352813, 42.0707267295262 ], [ 3.083434411635523, 42.070859525774615 ], [ 3.083892428929161, 42.071022325140319 ], [ 3.084340182164357, 42.070947845489158 ], [ 3.085116853259807, 42.071243878005895 ], [ 3.085574648527299, 42.071236122421027 ], [ 3.086122314955134, 42.071450752025044 ], [ 3.086500462829786, 42.071420807046344 ], [ 3.086918571333343, 42.071502057772115 ], [ 3.087724750689217, 42.071531104968429 ], [ 3.088053567082667, 42.071812628739274 ], [ 3.088163412627409, 42.07207948968307 ], [ 3.088521946928659, 42.072257177206531 ], [ 3.090355152877975, 42.073634965572019 ], [ 3.092327939578395, 42.075123839237065 ], [ 3.094470285542615, 42.076790502500501 ], [ 3.0949036950752, 42.077090458079503 ], [ 3.095252594815096, 42.077449803292289 ], [ 3.095586473942003, 42.077746131252901 ], [ 3.09589512115149, 42.077808902446755 ], [ 3.096158939846996, 42.077845757394229 ], [ 3.096547242805884, 42.077926997909529 ], [ 3.09680126116542, 42.078063963992953 ], [ 3.09701052432704, 42.078223212765742 ], [ 3.097538689077158, 42.078638012812476 ], [ 3.097928524969415, 42.078902771989384 ], [ 3.098511319675953, 42.079235954374582 ], [ 3.098750618338394, 42.079502693634225 ], [ 3.099173956983233, 42.079702537263948 ], [ 3.099642298460495, 42.080035812705418 ], [ 3.100135593232936, 42.080409847689282 ], [ 3.100354820337027, 42.080565374033561 ], [ 3.100544140395241, 42.080691265620629 ], [ 3.100678557173224, 42.080717100751052 ], [ 3.100882832487614, 42.080857808924364 ], [ 3.101102051186595, 42.081005918701258 ], [ 3.101630330739352, 42.081461482840943 ], [ 3.102118516692863, 42.081739116992964 ], [ 3.102631627664922, 42.082038972165627 ], [ 3.102910596423731, 42.0821981477051 ], [ 3.103334128452321, 42.082498080004314 ], [ 3.103443942081001, 42.082694482081017 ], [ 3.103623242056404, 42.082772179211958 ], [ 3.103732743016104, 42.082775787853031 ], [ 3.103892214008539, 42.082901700842037 ], [ 3.104186157281758, 42.083083105093358 ], [ 3.104574831134852, 42.083364526577085 ], [ 3.104744399719527, 42.083575703174382 ], [ 3.104998415435128, 42.083686698014915 ], [ 3.105177622123496, 42.083705071741512 ], [ 3.105272493746408, 42.083890363022661 ], [ 3.105297624609141, 42.084038642577845 ], [ 3.105233087202964, 42.084138806035114 ], [ 3.105253265424943, 42.084301920395127 ], [ 3.105427674760239, 42.084427817513784 ], [ 3.105507555206906, 42.084576046699169 ], [ 3.105552693994735, 42.084783628820325 ], [ 3.105662506113196, 42.08497261356554 ], [ 3.106766684957292, 42.08748531986484 ], [ 3.107215962849743, 42.088263489171382 ], [ 3.107446090204169, 42.088952880516771 ], [ 3.107821024385576, 42.089909079782139 ], [ 3.10836078839874, 42.091191387476094 ], [ 3.108580490069195, 42.091591596337764 ], [ 3.108640779593239, 42.091917804573967 ], [ 3.108820637891672, 42.092303220397341 ], [ 3.109050555973399, 42.092851720972 ], [ 3.10935053760549, 42.093615192715824 ], [ 3.109550725031418, 42.094237871658194 ], [ 3.109790548438904, 42.094749285523406 ], [ 3.110010643045781, 42.095364529375338 ], [ 3.110180653148825, 42.095801858077209 ], [ 3.110340323799299, 42.096016742995829 ], [ 3.110400613717978, 42.096335534937474 ], [ 3.110470924841018, 42.096691392752724 ], [ 3.110660557821102, 42.096958154139507 ], [ 3.110999912506372, 42.097439808756164 ], [ 3.111010334441452, 42.09770674273414 ], [ 3.111011472504322, 42.098359271503334 ], [ 3.111291045910677, 42.098811322509469 ], [ 3.111430983397402, 42.09912262137108 ], [ 3.111481415981055, 42.099493327913322 ], [ 3.111661182882967, 42.099804587756559 ], [ 3.111811289594399, 42.10023451795378 ], [ 3.112051806607802, 42.101116681291124 ], [ 3.112073274387339, 42.10199905812707 ], [ 3.111984965389799, 42.102740654990072 ], [ 3.11255569979567, 42.104534551984273 ], [ 3.113095986945861, 42.105987380909376 ], [ 3.113455892436052, 42.106787856573021 ], [ 3.113775550866126, 42.107351087709993 ], [ 3.113886614314159, 42.108203713975378 ], [ 3.114007067628342, 42.108737481462981 ], [ 3.113838150696521, 42.10894527190537 ], [ 3.113828603765015, 42.109175149407456 ], [ 3.113740186147824, 42.109850010925669 ], [ 3.113542118170198, 42.110465660076528 ], [ 3.113433659727187, 42.111073805179025 ], [ 3.113255357002216, 42.111607868125645 ], [ 3.113057133943584, 42.112141950374138 ], [ 3.113077802546422, 42.112564590340611 ], [ 3.11289888735057, 42.112757558930404 ], [ 3.112869510960636, 42.113039361357018 ], [ 3.112830425333502, 42.11346206006143 ], [ 3.112711207786843, 42.113625309246935 ], [ 3.112741820426591, 42.114040524305558 ], [ 3.111787557297176, 42.115064740422653 ], [ 3.111419108349965, 42.115087344040148 ], [ 3.110832074836603, 42.115406761398717 ], [ 3.110075754063117, 42.115741168433679 ], [ 3.109548514579454, 42.116090182172869 ], [ 3.109051274479643, 42.116513315846582 ], [ 3.108334831971909, 42.116884748881034 ], [ 3.108226338154922, 42.117507718599974 ], [ 3.10797860904055, 42.118249460632242 ], [ 3.107988971534691, 42.118486733628608 ], [ 3.108457417396875, 42.118686499130398 ], [ 3.108965921087688, 42.119012281126423 ], [ 3.109484913126034, 42.119642069302238 ], [ 3.110003876975275, 42.120249609836023 ], [ 3.111221648548612, 42.121768527829218 ], [ 3.112050172726468, 42.122805833063595 ], [ 3.11245911070061, 42.12312428143715 ], [ 3.113076879289914, 42.123249730670366 ], [ 3.114033371522666, 42.123411915850653 ], [ 3.115179198014273, 42.123618393632839 ], [ 3.116414920786477, 42.123958240208225 ], [ 3.117351716288953, 42.12423164385622 ], [ 3.118086917334809, 42.124559006795607 ], [ 3.118550179339668, 42.124608580882111 ], [ 3.118951108354728, 42.124615581036792 ], [ 3.1191726766916, 42.124585690823928 ], [ 3.119352093123721, 42.12465224004238 ], [ 3.119730499382327, 42.124599940278763 ], [ 3.120363216478847, 42.124714212029879 ], [ 3.120749455306285, 42.124852838929648 ], [ 3.121183012596345, 42.124993268331401 ], [ 3.1214471902301, 42.125107922719813 ], [ 3.121582056676682, 42.125315402043164 ], [ 3.121881127425445, 42.125444848600822 ], [ 3.122379978581439, 42.125866976977044 ], [ 3.122749480822756, 42.12635968481095 ], [ 3.122964364256786, 42.126733916017244 ], [ 3.123154067633058, 42.126963579876694 ], [ 3.123398291813825, 42.127056005922235 ], [ 3.123772017190555, 42.127151999366873 ], [ 3.123991166887783, 42.127155470303563 ], [ 3.12408557953777, 42.1270441421321 ], [ 3.124179803600312, 42.126836418117747 ], [ 3.124393268197015, 42.12648026331712 ], [ 3.12468621372646, 42.126020210702208 ], [ 3.124845077680093, 42.12576051031634 ], [ 3.124989451021362, 42.125730692840953 ], [ 3.126065606762218, 42.125926015067598 ], [ 3.126220293977247, 42.126074146524772 ], [ 3.126335293104128, 42.126300179762225 ], [ 3.126355723228043, 42.1265559773517 ], [ 3.126425803550529, 42.126733861950157 ], [ 3.126436140486981, 42.126922934957875 ] ] ] } },
{ "type": "Feature", "properties": { "nom": "Sèquia Vinyals", "codi_sad": "CR_VINYALS" }, "geometry": { "type": "MultiLineString", "coordinates": [ [ [ 2.860505209341029, 42.024596835656503 ], [ 2.86057236618256, 42.024615607530087 ], [ 2.860639080338336, 42.024635237401291 ], [ 2.860705332093228, 42.02465571946928 ], [ 2.860771101868692, 42.024677047681379 ], [ 2.860836370228559, 42.024699215734877 ], [ 2.860901117884775, 42.024722217078853 ], [ 2.860965325703095, 42.024746044916142 ], [ 2.861028974708743, 42.024770692205351 ], [ 2.861092046092012, 42.024796151662869 ], [ 2.861154521213822, 42.024822415765136 ], [ 2.861216381611232, 42.024849476750752 ], [ 2.861277609002885, 42.024877326622843 ], [ 2.861338185294422, 42.02490595715139 ], [ 2.861398092583816, 42.024935359875641 ], [ 2.861457313166667, 42.024965526106712 ], [ 2.861515829541434, 42.024996446929968 ], [ 2.861573624414607, 42.025028113207867 ], [ 2.861630680705811, 42.025060515582524 ], [ 2.861686981552857, 42.025093644478503 ], [ 2.861742510316729, 42.025127490105668 ], [ 2.861797250586491, 42.025162042462021 ], [ 2.861851186184146, 42.02519729133676 ], [ 2.861904301169409, 42.02523322631319 ], [ 2.861956579844425, 42.025269836771876 ], [ 2.862008006758401, 42.025307111893696 ], [ 2.862058566712179, 42.025345040663126 ], [ 2.862108244762724, 42.025383611871462 ], [ 2.862157026227539, 42.025422814120105 ], [ 2.862204896689009, 42.025462635823949 ], [ 2.86225184199866, 42.025503065214828 ], [ 2.862297848281341, 42.025544090344937 ], [ 2.862342901939327, 42.025585699090399 ], [ 2.862386989656334, 42.025627879154897 ], [ 2.86243009840146, 42.025670618073164 ], [ 2.862472215433036, 42.0257139032148 ], [ 2.862891544243675, 42.026020356554376 ], [ 2.86331495845395, 42.026323672512632 ], [ 2.863467558103681, 42.026415042147832 ], [ 2.863618267576124, 42.026508139725991 ], [ 2.863767051674151, 42.0266029435099 ], [ 2.863913875649727, 42.026699431363937 ], [ 2.864058705212015, 42.026797580759123 ], [ 2.864280279511805, 42.026907799611365 ], [ 2.864499293309775, 42.027020828038182 ], [ 2.864715682523086, 42.027136632974802 ], [ 2.864929383835655, 42.027255180543996 ], [ 2.864962530896489, 42.027273008831742 ], [ 2.864995270237506, 42.027291251131437 ], [ 2.865027592557452, 42.027309902260626 ], [ 2.865059488673516, 42.027328956920719 ], [ 2.865090949523946, 42.027348409698462 ], [ 2.865121966170622, 42.027368255067501 ], [ 2.865152529801588, 42.027388487389992 ], [ 2.865182631733564, 42.027409100918085 ], [ 2.865212263414411, 42.027430089795665 ], [ 2.865241416425556, 42.027451448059963 ], [ 2.865270082484389, 42.027473169643287 ], [ 2.865298253446614, 42.027495248374713 ], [ 2.865325921308563, 42.027517677981812 ], [ 2.865353078209468, 42.027540452092531 ], [ 2.8653797164337, 42.0275635642369 ], [ 2.865405828412956, 42.027587007848901 ], [ 2.865431406728409, 42.027610776268368 ], [ 2.865456444112821, 42.02763486274285 ], [ 2.865480933452605, 42.027659260429488 ], [ 2.865504867789842, 42.02768396239707 ], [ 2.865528240324267, 42.027708961627887 ], [ 2.865551044415196, 42.027734251019758 ], [ 2.865573273583411, 42.027759823388102 ], [ 2.865594921513006, 42.02778567146791 ], [ 2.865615982053181, 42.027811787915844 ], [ 2.865636449219986, 42.027838165312311 ], [ 2.865656317198026, 42.027864796163577 ], [ 2.865766926474271, 42.028010482434787 ], [ 2.865880789483086, 42.028154768657288 ], [ 2.865997874373821, 42.02829761444243 ], [ 2.866118148393297, 42.028438979804527 ], [ 2.866241577894957, 42.028578825172019 ], [ 2.866368128348268, 42.028717111398556 ], [ 2.866497764348368, 42.028853799774026 ], [ 2.86663044962597, 42.028988852035312 ], [ 2.866749879573088, 42.029304095426795 ], [ 2.866876632807518, 42.029617745412089 ], [ 2.867010671226606, 42.02992970743999 ], [ 2.867151954529795, 42.030239887466763 ], [ 2.867152513231357, 42.030247646176036 ], [ 2.867153251566901, 42.030255396534784 ], [ 2.867154169316279, 42.030263136231426 ], [ 2.867155266205833, 42.030270862957543 ], [ 2.867156541908472, 42.030278574408563 ], [ 2.867157996043774, 42.030286268284499 ], [ 2.867159628178095, 42.030293942290605 ], [ 2.867161437824704, 42.030301594138045 ], [ 2.867163424443924, 42.030309221544591 ], [ 2.867165587443292, 42.030316822235321 ], [ 2.867167926177741, 42.030324393943253 ], [ 2.867170439949787, 42.030331934410064 ], [ 2.867173128009738, 42.030339441386758 ], [ 2.867175989555919, 42.030346912634343 ], [ 2.867179023734913, 42.030354345924408 ], [ 2.867182229641809, 42.03036173903994 ], [ 2.867185606320477, 42.030369089775874 ], [ 2.867189152763855, 42.030376395939783 ], [ 2.867192867914241, 42.030383655352551 ], [ 2.867196750663615, 42.030390865848986 ], [ 2.867200799853971, 42.030398025278501 ], [ 2.867205014277657, 42.030405131505717 ], [ 2.867209392677737, 42.030412182411169 ], [ 2.867213933748367, 42.030419175891822 ], [ 2.867218636135183, 42.030426109861814 ], [ 2.867223498435707, 42.030432982253025 ], [ 2.867228519199762, 42.030439791015723 ], [ 2.867233696929908, 42.030446534119108 ], [ 2.867239030081886, 42.030453209551965 ], [ 2.86724451706508, 42.030459815323319 ], [ 2.867250156242988, 42.030466349462905 ], [ 2.867255945933718, 42.03047281002187 ], [ 2.86726188441048, 42.030479195073269 ], [ 2.867267969902109, 42.030485502712708 ], [ 2.867274200593586, 42.030491731058852 ], [ 2.867280574626585, 42.030497878254074 ], [ 2.867287090100027, 42.030503942464861 ], [ 2.867293745070641, 42.030509921882519 ], [ 2.867300537553553, 42.030515814723621 ], [ 2.867307465522868, 42.030521619230576 ], [ 2.86731452691228, 42.030527333672104 ], [ 2.867321719615691, 42.030532956343819 ], [ 2.867329041487833, 42.030538485568719 ], [ 2.867336490344908, 42.030543919697635 ], [ 2.867344063965243, 42.030549257109776 ], [ 2.867351760089956, 42.030554496213185 ], [ 2.867359576423618, 42.030559635445265 ], [ 2.867367510634948, 42.030564673273197 ], [ 2.867375560357506, 42.030569608194348 ], [ 2.867383723190395, 42.030574438736835 ], [ 2.867391996698982, 42.030579163459912 ], [ 2.867400378415621, 42.030583780954359 ], [ 2.86740886584039, 42.030588289842946 ], [ 2.867417456441838, 42.030592688780878 ], [ 2.867426147657737, 42.030596976456088 ], [ 2.867434936895849, 42.030601151589742 ], [ 2.867443821534697, 42.030605212936557 ], [ 2.867452798924351, 42.030609159285177 ], [ 2.867461866387212, 42.030612989458561 ], [ 2.867471021218816, 42.030616702314312 ], [ 2.867480260688638, 42.030620296745035 ], [ 2.867489582040907, 42.030623771678627 ], [ 2.86749898249543, 42.030627126078684 ], [ 2.867508459248417, 42.03063035894467 ], [ 2.867518009473322, 42.030633469312377 ], [ 2.867527630321681, 42.030636456254072 ], [ 2.867537318923967, 42.030639318878904 ], [ 2.869102724902183, 42.031344481814429 ], [ 2.870276770753851, 42.031888764659584 ], [ 2.871274492788333, 42.03233000642048 ], [ 2.871561098443403, 42.032474291473804 ], [ 2.87411245281004, 42.034060721695823 ], [ 2.878276749965813, 42.034756240308269 ], [ 2.879523347876848, 42.034938538761239 ], [ 2.881084302719918, 42.035199301627671 ], [ 2.882297516465633, 42.03554195228773 ], [ 2.8834933492702, 42.036345256955691 ], [ 2.884336560560047, 42.036884946027079 ], [ 2.885400204488134, 42.037585266037027 ], [ 2.885852190377631, 42.037844851378168 ], [ 2.886172011499812, 42.037960340079742 ], [ 2.886618836413826, 42.038022481125068 ], [ 2.887656087423152, 42.038068746832245 ], [ 2.887937541758697, 42.038040229196781 ], [ 2.888462113392233, 42.037818624480472 ], [ 2.889428345347254, 42.037453479803048 ], [ 2.889737491164692, 42.037363285619612 ], [ 2.890614834378145, 42.037343558809944 ], [ 2.891442511151366, 42.037327891584447 ], [ 2.892441110019436, 42.037386417251433 ], [ 2.892998338730284, 42.037419844098558 ], [ 2.894295071936144, 42.037371686585175 ], [ 2.896281590675132, 42.037274780757336 ], [ 2.897490036135073, 42.037226507333237 ], [ 2.898003203850746, 42.037210511479635 ], [ 2.89851630587224, 42.037235645811492 ], [ 2.898781133513657, 42.037248219416306 ], [ 2.899249958487465, 42.037359689742694 ], [ 2.899531249076899, 42.037429861617554 ], [ 2.899685789046295, 42.037401204008873 ], [ 2.899785320272808, 42.037265553579708 ], [ 2.899923545553316, 42.03708469101182 ], [ 2.900095114144357, 42.036751666896855 ], [ 2.900795620183937, 42.036900351627274 ], [ 2.901672624064692, 42.037094429206398 ], [ 2.90251115429434, 42.03719386256973 ], [ 2.904099884333424, 42.03742965643157 ], [ 2.904717746432684, 42.037508322819249 ], [ 2.905479088078829, 42.037574764363711 ], [ 2.90614115532586, 42.037612326946061 ], [ 2.906593569300596, 42.037637375527268 ], [ 2.907134362469915, 42.037596681806761 ], [ 2.908055975645706, 42.037486365910496 ], [ 2.909236991955846, 42.037322775728931 ], [ 2.910213658272671, 42.037294751099729 ], [ 2.910903371206824, 42.0372911752983 ], [ 2.911565233461267, 42.037476783574284 ], [ 2.912271224117755, 42.037674761526091 ], [ 2.912911012285043, 42.037868571664063 ], [ 2.913539819076253, 42.038025350678069 ], [ 2.914422312317642, 42.038281033745804 ], [ 2.914620851974581, 42.038355220159083 ], [ 2.915084019879326, 42.038598245685137 ], [ 2.91576770744395, 42.038989508475311 ], [ 2.916363198883937, 42.039319004148233 ], [ 2.916721627125388, 42.039496134620904 ], [ 2.91698631255674, 42.039627950433328 ], [ 2.917686666762903, 42.039949288494832 ], [ 2.919004710776915, 42.040526081417354 ], [ 2.921116906016663, 42.041477713540829 ], [ 2.922512205700388, 42.042103878117679 ], [ 2.922914791525621, 42.042297471974024 ], [ 2.923251221890746, 42.042441661191262 ], [ 2.923499270158354, 42.042663942299313 ], [ 2.924050323268879, 42.043301862000718 ], [ 2.924358858302565, 42.043709277454766 ], [ 2.924557226925528, 42.043952089724108 ], [ 2.924877032618322, 42.044166188442802 ], [ 2.925163754958523, 42.044359698451935 ] ] ] } },
{ "type": "Feature", "properties": { "nom": "Canal de Sant Jordi", "codi_sad": "CR_CERVIA" }, "geometry": { "type": "MultiLineString", "coordinates": [ [ [ 2.827246338685765, 42.01944703893421 ], [ 2.827190576349054, 42.019669071319363 ], [ 2.827082850502181, 42.02074658444792 ], [ 2.826976983210244, 42.021137185016904 ], [ 2.826992405778739, 42.02155264791746 ], [ 2.827040859538171, 42.021992840142538 ], [ 2.82709519805838, 42.022297303493254 ], [ 2.827451613961453, 42.023091699565668 ], [ 2.827791256177121, 42.02397244776391 ], [ 2.828048358780295, 42.024779032501868 ], [ 2.828147058646664, 42.025001296429693 ], [ 2.828548298897282, 42.025548960182846 ], [ 2.828971535538265, 42.026125448083768 ], [ 2.829460463821511, 42.026895355210186 ], [ 2.830270035171758, 42.02741893916285 ], [ 2.830633575321419, 42.027633365646658 ], [ 2.831250870028664, 42.02785639082748 ], [ 2.831846058326183, 42.028095833335115 ], [ 2.832270185010336, 42.02835147594444 ], [ 2.832821246658582, 42.028590848888157 ], [ 2.8337305363706, 42.028974702699443 ], [ 2.834673024032849, 42.029325691039958 ], [ 2.836800926401135, 42.029970404491792 ], [ 2.837507197767557, 42.029934387177448 ], [ 2.838516487069588, 42.030063322538354 ], [ 2.839520397946102, 42.030138769151449 ], [ 2.840938180803117, 42.030177761937367 ], [ 2.842367111295109, 42.030171506684233 ], [ 2.845799637102023, 42.029789523028931 ], [ 2.846417847500744, 42.029662840864376 ], [ 2.847367467459515, 42.029372066194803 ], [ 2.848041574924469, 42.028936955179255 ], [ 2.848417517143594, 42.028604278280845 ], [ 2.848500573302043, 42.028476876899084 ], [ 2.84894244973804, 42.028255343263737 ], [ 2.849008924635961, 42.028140259461978 ], [ 2.849627820351505, 42.027713292908224 ], [ 2.850125696094854, 42.02713397440354 ], [ 2.850286579847618, 42.026751651142042 ], [ 2.850507933375029, 42.026459898135762 ], [ 2.850911662169775, 42.026028530836669 ], [ 2.85151963495382, 42.025539840806132 ], [ 2.85204504989039, 42.02496466262766 ], [ 2.852316114308272, 42.024640064007677 ], [ 2.852896527960113, 42.024130764785042 ], [ 2.853714140289295, 42.023621765116722 ], [ 2.854106204172149, 42.023449507061699 ], [ 2.854713416243784, 42.023273406917461 ], [ 2.855270548103781, 42.023286450527209 ], [ 2.856053390207348, 42.02350543785758 ], [ 2.856741783593947, 42.024024570182171 ], [ 2.857132663126674, 42.02437879792803 ], [ 2.857644948039269, 42.024716721903175 ], [ 2.85794789184887, 42.024926873574877 ], [ 2.858151996082845, 42.024931239244175 ], [ 2.858746621121277, 42.025458470034053 ], [ 2.859022134266411, 42.025602772902324 ], [ 2.859242291634907, 42.025833385727012 ], [ 2.859406866952047, 42.026253140066338 ], [ 2.859532854488015, 42.026660507142033 ], [ 2.859359252138981, 42.027832573761444 ], [ 2.859331287137017, 42.028005296407372 ], [ 2.859165091825332, 42.028317700348552 ], [ 2.85893303767297, 42.028473719254357 ], [ 2.858590690005525, 42.028609035565076 ], [ 2.85822523134116, 42.029213233842015 ], [ 2.85795985009674, 42.029467927795459 ], [ 2.857726770718112, 42.030080514646585 ], [ 2.857494091090568, 42.030512118106707 ], [ 2.857310804609662, 42.031058953686916 ], [ 2.857028123225986, 42.031642684473319 ], [ 2.856845069449201, 42.03208257481338 ], [ 2.856357694709893, 42.03290873048936 ], [ 2.856323498004997, 42.033394051901503 ], [ 2.8555196221565, 42.035100043767457 ], [ 2.855197947702333, 42.035831797684175 ], [ 2.855087036649342, 42.036078452950179 ], [ 2.855074954916101, 42.036539122115336 ], [ 2.854858103304725, 42.037271007196736 ], [ 2.85491107170972, 42.038241801801242 ], [ 2.854992771610461, 42.038710815794957 ], [ 2.854815276095967, 42.039117803352724 ], [ 2.855436485242678, 42.040134560527711 ], [ 2.856390802792164, 42.040259156047313 ], [ 2.856710776500448, 42.040288348702674 ], [ 2.86191674708013, 42.0441982036102 ], [ 2.86326071182957, 42.045359748483605 ], [ 2.864965706708758, 42.045444032010273 ], [ 2.866873631818263, 42.046129059840652 ], [ 2.868291065574344, 42.046517340329949 ], [ 2.868616170908839, 42.046752167990526 ], [ 2.868862201045068, 42.04787125229111 ], [ 2.868955534797663, 42.048105813891283 ], [ 2.870807562629937, 42.049202036698674 ], [ 2.871629067584895, 42.0495896034491 ], [ 2.871485232801419, 42.049762198752347 ], [ 2.872400247019069, 42.050310281131068 ], [ 2.872614862951183, 42.050619012818373 ], [ 2.873060182611559, 42.051475060843245 ], [ 2.873803350345948, 42.052426039470177 ], [ 2.874849611162788, 42.05362002529106 ], [ 2.87634384935007, 42.054357915109527 ], [ 2.876906975145174, 42.054268029130434 ], [ 2.877033653085038, 42.054403901879695 ], [ 2.877469340376448, 42.054573010725051 ], [ 2.878418508139012, 42.05463983197707 ], [ 2.879212767366215, 42.054903918019903 ], [ 2.87993514414955, 42.055241961712127 ], [ 2.880839225073331, 42.055814644328798 ], [ 2.883000206268689, 42.057215369081973 ], [ 2.883656434023463, 42.057532755580119 ], [ 2.885692408335533, 42.05791733258733 ], [ 2.88768931438379, 42.058560969252355 ], [ 2.889035147248042, 42.05909288605438 ], [ 2.890397752336371, 42.059513745632991 ], [ 2.89213552124404, 42.06004599961571 ], [ 2.894534529331166, 42.061273973776593 ], [ 2.897126658228883, 42.062604901701818 ], [ 2.896966290092113, 42.062785740205079 ], [ 2.897253051011073, 42.062954639932414 ], [ 2.898427283430974, 42.063897615951753 ], [ 2.899447547642797, 42.064486706886093 ], [ 2.900975158576244, 42.065409399490754 ], [ 2.902924333058568, 42.06502853398699 ], [ 2.905663127889877, 42.064459078334927 ], [ 2.906407966536956, 42.064706482205381 ], [ 2.911347231964763, 42.065545390270678 ], [ 2.91166157563031, 42.065763634029679 ], [ 2.912781411653347, 42.06631155053423 ], [ 2.912554130743041, 42.067006513930131 ], [ 2.914330959081723, 42.067517894816469 ], [ 2.915456696686276, 42.067818995549139 ], [ 2.915096770010233, 42.068649602649359 ], [ 2.916829452957904, 42.06919793113147 ], [ 2.9174918714469, 42.069223088651995 ], [ 2.918689498726088, 42.069462510790153 ], [ 2.919163948975801, 42.069705526563681 ], [ 2.921614266189655, 42.070332437313382 ], [ 2.922105396285154, 42.070493187681492 ], [ 2.924003704217605, 42.071127897810555 ], [ 2.925808251756311, 42.071717270379814 ], [ 2.926227734652596, 42.071791578918273 ], [ 2.927872691713307, 42.071965380139638 ], [ 2.928170858452275, 42.071920321620439 ], [ 2.929043287303828, 42.0717727880807 ], [ 2.930682596694002, 42.072069942411289 ], [ 2.931140576759803, 42.072288219249501 ], [ 2.931681154461363, 42.07270809165837 ], [ 2.932729480080727, 42.073288676136151 ], [ 2.932955818944619, 42.07330114826712 ], [ 2.933750917911012, 42.073198779288475 ], [ 2.934650617641344, 42.073380277159984 ], [ 2.936516790570321, 42.073233248396278 ], [ 2.937091133687256, 42.073048469381995 ], [ 2.937869664657585, 42.072941949551421 ], [ 2.938289372941061, 42.072806439456116 ], [ 2.938764259004151, 42.072699749877984 ], [ 2.939250106467366, 42.072675328710687 ], [ 2.939498542971003, 42.072671346719467 ], [ 2.939636487022659, 42.072749570702207 ], [ 2.941541365672752, 42.072503763074884 ], [ 2.94267883174227, 42.072282222466661 ], [ 2.94343533801288, 42.072089276049269 ], [ 2.943965402311223, 42.071999045033849 ], [ 2.944445807878462, 42.071875881706788 ], [ 2.944843394793522, 42.071760903052159 ], [ 2.94521343015329, 42.071584211425517 ], [ 2.945644200755594, 42.071395207692525 ], [ 2.946091467948826, 42.071280248222756 ], [ 2.946555340168137, 42.071111822752677 ], [ 2.949735913804746, 42.070208349154711 ], [ 2.950520024507156, 42.069953669587584 ], [ 2.951160319323924, 42.070060887852854 ], [ 2.952430156934814, 42.069896891981948 ], [ 2.953059910397977, 42.06932952539799 ], [ 2.953258730573248, 42.069214436067725 ], [ 2.958281017391297, 42.071203061995639 ], [ 2.959103383256716, 42.071520076683505 ], [ 2.958942370576348, 42.072939083262654 ], [ 2.958853722454027, 42.073428525705637 ], [ 2.958130133836034, 42.073983549796857 ], [ 2.957804246293661, 42.074221997655052 ], [ 2.957743358583786, 42.074460542456542 ], [ 2.957323749609088, 42.074493293009944 ], [ 2.955805141406763, 42.075019211359539 ], [ 2.955705650281838, 42.075183702087458 ], [ 2.955628056238567, 42.075615560936249 ], [ 2.955567084446771, 42.075961048381181 ], [ 2.955152493181402, 42.076693041383542 ], [ 2.954842849396847, 42.07734692285247 ], [ 2.955393620139071, 42.07926390100036 ], [ 2.955740684388875, 42.080382832220138 ], [ 2.955728821021461, 42.081563322609973 ], [ 2.955711501388054, 42.082649206551665 ], [ 2.956627295413062, 42.083809484711558 ], [ 2.957063392528573, 42.083982403972968 ], [ 2.957792314983196, 42.08389629673902 ], [ 2.958311462364555, 42.083731957665648 ], [ 2.959515526901386, 42.083201783216929 ], [ 2.959763995438791, 42.083210097042482 ], [ 2.960393377901679, 42.08334605228157 ], [ 2.960547729314095, 42.083757427552335 ], [ 2.961397989300378, 42.083889339768319 ], [ 2.962293188793551, 42.082733822226352 ], [ 2.962519734087774, 42.082462423802426 ], [ 2.96327082243701, 42.082195307216544 ], [ 2.963740173053377, 42.082162550693823 ], [ 2.963900267656131, 42.082216073051512 ], [ 2.965031892503926, 42.082751142275718 ], [ 2.965445755836643, 42.083224288103764 ], [ 2.965594844584641, 42.083216106454124 ], [ 2.966622102492756, 42.082772181904303 ], [ 2.967030786198502, 42.082607771171858 ], [ 2.967660238822027, 42.082624403163486 ], [ 2.968173717821188, 42.082682131816249 ], [ 2.968675978540636, 42.083097705383665 ], [ 2.968874556188663, 42.08350908153961 ], [ 2.968879894941483, 42.083883386096872 ], [ 2.968747204619842, 42.08422886057911 ], [ 2.968597990177579, 42.084487952738677 ], [ 2.968625477338735, 42.084734753476035 ], [ 2.968862790851297, 42.08498572453847 ], [ 2.969486897429022, 42.084685627102822 ], [ 2.96998394959467, 42.084488323607424 ], [ 2.970685234660801, 42.084439146241607 ], [ 2.97105529076385, 42.084221239483981 ], [ 2.971370092112121, 42.084081468947517 ], [ 2.971856053977564, 42.083966418971578 ], [ 2.973021177422251, 42.083863868268658 ], [ 2.973562455678417, 42.08349791756882 ], [ 2.974771948000889, 42.082872980175878 ], [ 2.975843330864528, 42.082371397638639 ], [ 2.976367891982923, 42.082338601080423 ], [ 2.976367891982923, 42.082338601080423 ] ] ] } },
{ "type": "Feature", "properties": { "nom": "Rec del Molí de Pals", "codi_sad": "C_AMBIEN_REC_MOLI" }, "geometry": { "type": "MultiLineString", "coordinates": [ [ [ 3.068601889064371, 42.041390116514947 ], [ 3.068760617194474, 42.040848202140424 ], [ 3.069073854644786, 42.040473193765699 ], [ 3.069641165509702, 42.040261318700026 ], [ 3.070467624324964, 42.040297925201209 ], [ 3.071144520174941, 42.040145352846416 ], [ 3.072941162175166, 42.03965064985475 ], [ 3.07364785539159, 42.039446088482848 ], [ 3.074906904508997, 42.039040764585543 ], [ 3.075683360233781, 42.038902944788667 ], [ 3.077101690694877, 42.038497491644065 ], [ 3.078271181664182, 42.038166412778558 ], [ 3.079341100489949, 42.037839101945572 ], [ 3.079540081620801, 42.037720209226364 ], [ 3.079649301272747, 42.037478912381992 ], [ 3.079728595335584, 42.037193103084242 ], [ 3.079842856568653, 42.037003757852318 ], [ 3.080270614507258, 42.036713994137102 ], [ 3.080444671649457, 42.036572850687328 ], [ 3.080797606611843, 42.036168093463736 ], [ 3.081737245376502, 42.035213676723998 ], [ 3.082120147242772, 42.03489796029308 ], [ 3.082473350186454, 42.034715863360816 ], [ 3.08302583421492, 42.034659798620339 ], [ 3.083638072459841, 42.034618532077779 ], [ 3.084484186278869, 42.034510290639268 ], [ 3.08549453513031, 42.034375943078011 ], [ 3.086340627491379, 42.034256554679118 ], [ 3.087097235347082, 42.034226294283719 ], [ 3.087440520429503, 42.034085011631262 ], [ 3.088112275304038, 42.03389152092128 ], [ 3.088814115696555, 42.033857580140655 ], [ 3.089421192868558, 42.03369382056195 ], [ 3.090123019890536, 42.033652449594939 ], [ 3.091068249174545, 42.03325090511585 ], [ 3.09123233847095, 42.033124597522715 ], [ 3.092157802449753, 42.032834392653193 ], [ 3.092441308000598, 42.032674587509646 ], [ 3.092466035765414, 42.032563234681184 ], [ 3.092421057998777, 42.03244080470089 ], [ 3.092485554300792, 42.032292308863418 ], [ 3.093227457377213, 42.032436441469557 ], [ 3.093421113633144, 42.032109707458687 ], [ 3.093555470197397, 42.032079909248665 ], [ 3.093884074616338, 42.032127885208837 ], [ 3.094346893169232, 42.032049572677586 ], [ 3.094511253259902, 42.032112526117068 ], [ 3.094685795068904, 42.032327625908906 ], [ 3.094939640692708, 42.032312571837991 ], [ 3.095088681448398, 42.032115760310376 ], [ 3.095198087432148, 42.032045158773805 ], [ 3.095491681798536, 42.031981826241733 ], [ 3.095725436588733, 42.031848032026282 ], [ 3.096068460613698, 42.0315545687317 ], [ 3.096625607529921, 42.031316590813518 ], [ 3.097078167753992, 42.031045298802397 ], [ 3.097416622879681, 42.031026456563147 ], [ 3.097744940476518, 42.030888866821265 ], [ 3.098182691260332, 42.030702938306256 ], [ 3.098784661933125, 42.030490889214299 ], [ 3.099356791668757, 42.030297418284967 ], [ 3.099570772239861, 42.030260121878236 ], [ 3.099809745225805, 42.030289603115584 ], [ 3.099909367732803, 42.030334049626831 ], [ 3.100013909850035, 42.030341380780634 ], [ 3.101466189271792, 42.02959046425164 ], [ 3.101540699471517, 42.029493909789949 ], [ 3.101987156821702, 42.02853976146325 ], [ 3.102170658832017, 42.028123955105755 ], [ 3.102314773361162, 42.027979093841772 ], [ 3.102643130367987, 42.027882312086433 ], [ 3.103225311941166, 42.027770457006412 ], [ 3.103772739970557, 42.027714296898175 ], [ 3.104419691390516, 42.027643199284576 ], [ 3.104504161852703, 42.027554056006778 ], [ 3.104796598715669, 42.02680414710391 ], [ 3.105242866204336, 42.025775763827085 ], [ 3.105694084251752, 42.024739951871226 ], [ 3.106224859892276, 42.023666953334128 ], [ 3.10650256915421, 42.023061786233299 ], [ 3.106641400109714, 42.022746213567913 ], [ 3.106805357035013, 42.022575350374787 ], [ 3.107307345012559, 42.022162949702341 ], [ 3.107501173100877, 42.021999479777371 ], [ 3.108221735483701, 42.021349359495908 ], [ 3.108683876768885, 42.020929568071303 ], [ 3.109031753078898, 42.020632349802788 ], [ 3.10941931379017, 42.020260870547069 ], [ 3.109871881761647, 42.020071171900554 ], [ 3.110513502136084, 42.019844178555246 ], [ 3.111060584487674, 42.019632117544077 ], [ 3.111930868122567, 42.019256450577316 ], [ 3.113005082989297, 42.018821198715486 ], [ 3.113243795412441, 42.018724474712265 ], [ 3.113591262013891, 42.018215709878199 ], [ 3.114013439194355, 42.017743980830623 ], [ 3.114142580119511, 42.017602830443167 ], [ 3.114376276373136, 42.017487553520695 ] ] ] } },
{ "type": "Feature", "properties": { "nom": "Sèquia Monar", "codi_sad": "SEQUIA_MONAR" }, "geometry": { "type": "LineString", "coordinates": [ [ 2.748011880552092, 41.970286490328732 ], [ 2.750279409293618, 41.9687871430149 ], [ 2.751801777746317, 41.970036195965257 ], [ 2.753019797972513, 41.970401062518597 ], [ 2.753776921485565, 41.970552885784677 ], [ 2.754652236691908, 41.970757967397638 ], [ 2.755515988620628, 41.970892336777474 ], [ 2.756060523741819, 41.970911165321247 ], [ 2.757078156974659, 41.971054684924752 ], [ 2.757598848047173, 41.971117631299336 ], [ 2.757989542607425, 41.971118455541628 ], [ 2.758569931765505, 41.971048996594028 ], [ 2.759245266198447, 41.970917888038088 ], [ 2.759742711533112, 41.970865919424433 ], [ 2.760264033188712, 41.970760987813051 ], [ 2.760773480939405, 41.970664864207379 ], [ 2.761282894180791, 41.970577573384261 ], [ 2.761673980744819, 41.970472364492061 ], [ 2.763297411240286, 41.970078142761565 ], [ 2.764020179738121, 41.969920598516687 ], [ 2.764565002070705, 41.969859871245816 ], [ 2.766080038881998, 41.969960154439285 ], [ 2.767666114785651, 41.970060561423082 ], [ 2.76815129124622, 41.970123388073901 ], [ 2.768517374293339, 41.970380345213322 ], [ 2.769142613621853, 41.971000062405473 ], [ 2.769662202323074, 41.971372180949686 ], [ 2.770193572914645, 41.971761990937608 ], [ 2.770406205458617, 41.971894943104793 ], [ 2.770901021777809, 41.972576235478321 ], [ 2.771408288486499, 41.973089683267453 ], [ 2.77210433715622, 41.973789041049656 ], [ 2.774267203040738, 41.9748711978039 ], [ 2.775247712518931, 41.975500414412366 ], [ 2.776654271453052, 41.976192297999454 ], [ 2.77751771322415, 41.976450192705428 ], [ 2.778014389397781, 41.976627856336179 ], [ 2.778404842549101, 41.976708126633127 ], [ 2.778606219139441, 41.976682009825694 ], [ 2.778855017787204, 41.976638313804216 ], [ 2.779115259473699, 41.976709495679316 ], [ 2.77944666545321, 41.976745473265133 ], [ 2.779742733578814, 41.976728371448182 ], [ 2.780026961265692, 41.976711246181104 ], [ 2.780394010061903, 41.976711948884407 ], [ 2.780832342916288, 41.976642105647379 ], [ 2.781105092724879, 41.976518934485071 ], [ 2.78127140037435, 41.976360219485784 ], [ 2.781355007183259, 41.976148336106959 ], [ 2.781474013047317, 41.975971860486766 ], [ 2.781663787355515, 41.975875035342234 ], [ 2.781912731508474, 41.975787157409108 ], [ 2.782185355174347, 41.975699323863132 ], [ 2.782410407254708, 41.975673245292093 ], [ 2.782742170086584, 41.975603192714765 ], [ 2.783049952213369, 41.975621444973733 ], [ 2.783393105096014, 41.975683938703234 ], [ 2.785617502601912, 41.976147539768277 ], [ 2.785746885856864, 41.976403999496092 ], [ 2.785924045500389, 41.976536856630169 ], [ 2.786349556478348, 41.976758527032182 ], [ 2.786538971732386, 41.976767714486037 ], [ 2.786835097064849, 41.97673292426505 ], [ 2.787284293187046, 41.97695463517227 ], [ 2.787852160090111, 41.977097047688048 ], [ 2.788361003108075, 41.977186337945241 ], [ 2.788692767349376, 41.977116268193342 ], [ 2.789225554669044, 41.977126082706867 ], [ 2.789805471220948, 41.977206661918395 ], [ 2.790065959648015, 41.977207138549595 ], [ 2.790515836309767, 41.977225630541895 ], [ 2.790906569086429, 41.977226342849626 ], [ 2.791167115340918, 41.977209146869569 ], [ 2.791949615961895, 41.976892503661105 ], [ 2.792766168862582, 41.977026507169953 ], [ 2.793132447771506, 41.977265715707361 ], [ 2.793428172164373, 41.977354599286976 ], [ 2.795510247867817, 41.977932608829164 ], [ 2.797119549399334, 41.978253527938357 ], [ 2.799078103655924, 41.978594915238915 ], [ 2.799373960377759, 41.978646234513668 ], [ 2.799687896990533, 41.97859598083889 ], [ 2.800016640821628, 41.978543543322594 ], [ 2.800380974983156, 41.978469078984538 ], [ 2.800582458552768, 41.97840758339003 ], [ 2.8007307347716, 41.978321698552811 ], [ 2.800837547909667, 41.978242367930797 ], [ 2.800861463042092, 41.978167310997613 ], [ 2.800858764394709, 41.978083372788483 ], [ 2.80085303680342, 41.978021517094859 ], [ 2.800838394414551, 41.977970689820857 ], [ 2.80082374516622, 41.977922071309763 ], [ 2.800817955677593, 41.977880094499668 ], [ 2.800832859556449, 41.977846988699213 ], [ 2.800856630034598, 41.977818315831648 ], [ 2.800886320740936, 41.97778965322707 ], [ 2.800945605776826, 41.977763250708129 ], [ 2.801016717501441, 41.977741286211931 ], [ 2.80113520486584, 41.977714986191458 ], [ 2.801244777432696, 41.97769971450122 ], [ 2.8013721175311, 41.977682264670875 ], [ 2.801481689986103, 41.977666992754202 ], [ 2.801570548416298, 41.97764947615503 ], [ 2.801692029764519, 41.977612136847767 ], [ 2.80178386872532, 41.977587998899864 ], [ 2.801866840966466, 41.977559428021614 ], [ 2.801979421106024, 41.977528699379057 ], [ 2.802112742431968, 41.977491380047262 ], [ 2.802240122883159, 41.977460676658822 ], [ 2.802320086832228, 41.977447561711514 ], [ 2.802444418245289, 41.977445566951417 ], [ 2.802651578150131, 41.977461384687359 ], [ 2.802787709132629, 41.977472662502343 ], [ 2.803042326273573, 41.977457638163344 ], [ 2.803388659123458, 41.977458231807979 ], [ 2.804093144986105, 41.977466062465979 ], [ 2.804578332985028, 41.977555240479752 ], [ 2.804738010491732, 41.977610731607349 ], [ 2.805353102811641, 41.97781277485678 ], [ 2.80588235508337, 41.978014669693671 ], [ 2.806154479954924, 41.978083601588267 ], [ 2.806521617465457, 41.97805771558361 ], [ 2.807373098905055, 41.978403716649581 ], [ 2.807917143384086, 41.978612253239106 ], [ 2.80829527594308, 41.978869103407938 ], [ 2.808401617169148, 41.978944379345542 ], [ 2.808715171463208, 41.979020000627337 ], [ 2.810240789962164, 41.979640989944016 ], [ 2.810837876878139, 41.979937951377615 ], [ 2.817946133609716, 41.982803182274097 ], [ 2.820200536105126, 41.983301500876152 ], [ 2.822472846782299, 41.983760044918533 ], [ 2.82252650210622, 41.983627601365491 ], [ 2.822550381554763, 41.98355695747086 ], [ 2.822751835481661, 41.983504258075747 ], [ 2.822982746151108, 41.983504614357678 ], [ 2.823255114548033, 41.983500616458912 ], [ 2.823441499858093, 41.983528409971328 ] ] } }
]
}
